{"fetched_at":"2026-03-29T02:12:04Z","count":15717,"tles":[{"name":"STARLINK-5872","line1":"1 57232U 23094Q   26087.58186506  .00034113  00000+0  12694-2 0  9994","line2":"2 57232  43.0001 284.1127 0001421 282.0965  77.9727 15.26900585150662","category":"Starlink"}]}