{
  "norad_id": 57232,
  "name": "STARLINK-5872",
  "history": [
    {
      "epoch": "2026-03-28T13:57:53.141184Z",
      "apogee_km": 486.06021336048525,
      "perigee_km": 484.10831323320326,
      "latitude_deg": 1.8137993267912596e-06,
      "longitude_deg": -111.35896784137458,
      "height_km": 484.6565452859073,
      "semi_major_axis_km": 6863.221263296844,
      "eccentricity": 0.0001422,
      "inclination_deg": 43.0001,
      "raan_deg": 284.1127,
      "arg_perigee_deg": 282.0965,
      "mean_anomaly_deg": 77.9727,
      "mean_motion_rev_day": 15.26900585
    }
  ]
}